[{"OBJECT_NAME":"CUBESX-HSE 3 (RS42S)","OBJECT_ID":"2023-091N","EPOCH":"2026-03-09T22:57:25.321248","MEAN_MOTION":15.286147,"ECCENTRICITY":0.00127191,"INCLINATION":97.5203,"RA_OF_ASC_NODE":133.4295,"ARG_OF_PERICENTER":86.5376,"MEAN_ANOMALY":273.7318,"EPHEMERIS_TYPE":0,"CLASSIFICATION_TYPE":"U","NORAD_CAT_ID":57178,"ELEMENT_SET_NO":999,"REV_AT_EPOCH":14925,"BSTAR":0.00059055694,"MEAN_MOTION_DOT":0.00016417,"MEAN_MOTION_DDOT":0},{"OBJECT_NAME":"STARLINK-35499","OBJECT_ID":"2025-262G","EPOCH":"2026-03-08T23:53:47.501952","MEAN_MOTION":15.27588506,"ECCENTRICITY":9.947e-5,"INCLINATION":42.997,"RA_OF_ASC_NODE":299.8029,"ARG_OF_PERICENTER":262.6611,"MEAN_ANOMALY":97.4128,"EPHEMERIS_TYPE":0,"CLASSIFICATION_TYPE":"U","NORAD_CAT_ID":66462,"ELEMENT_SET_NO":999,"REV_AT_EPOCH":1880,"BSTAR":0.0013358962,"MEAN_MOTION_DOT":0.00036691,"MEAN_MOTION_DDOT":0}]
